{
  "type": "FeatureCollection",
  "features": [
    {
      "type": "Feature",
      "properties": {
        "norad_id": 54259,
        "name": "EUTELSAT 10B",
        "group": "eutelsat",
        "lat": 0.060704289133609715,
        "lon": 177.57724092724504,
        "alt_km": 35785.189903997314,
        "timestamp": "2025-12-23T05:02:11.695099+00:00",
        "meta_object_name": "EUTELSAT 10B",
        "meta_object_id": "2022-157A",
        "meta_epoch": "2025-12-22T21:07:38.532576",
        "meta_mean_motion": 1.00272796,
        "meta_eccentricity": 7.321e-05,
        "meta_inclination": 0.0606,
        "meta_ra_of_asc_node": 96.1214,
        "meta_arg_of_pericenter": 2.1713,
        "meta_mean_anomaly": 320.3187,
        "meta_ephemeris_type": 0,
        "meta_classification_type": "U",
        "meta_norad_cat_id": 54259,
        "meta_element_set_no": 999,
        "meta_rev_at_epoch": 1125,
        "meta_bstar": 0,
        "meta_mean_motion_dot": 9e-07,
        "meta_mean_motion_ddot": 0,
        "tle_line1": "1 54259U 22157A   25356.88030709  .00000090  00000+0  00000+0 0  9995",
        "tle_line2": "2 54259   0.0606  96.1214 0000732   2.1713 320.3187  1.00272796 11255"
      },
      "geometry": {
        "type": "Point",
        "coordinates": [
          177.57724092724504,
          0.060704289133609715
        ]
      }
    },
    {
      "type": "Feature",
      "properties": {
        "norad_id": 59346,
        "name": "EUTELSAT 36D",
        "group": "eutelsat",
        "lat": 0.00028851961987787347,
        "lon": -156.59339121453795,
        "alt_km": 35787.318646447304,
        "timestamp": "2025-12-23T05:02:11.695110+00:00",
        "meta_object_name": "EUTELSAT 36D",
        "meta_object_id": "2024-059A",
        "meta_epoch": "2025-12-22T21:53:41.767872",
        "meta_mean_motion": 1.00272062,
        "meta_eccentricity": 3.385e-05,
        "meta_inclination": 0.0224,
        "meta_ra_of_asc_node": 32.3182,
        "meta_arg_of_pericenter": 333.4824,
        "meta_mean_anomaly": 90.1956,
        "meta_ephemeris_type": 0,
        "meta_classification_type": "U",
        "meta_norad_cat_id": 59346,
        "meta_element_set_no": 999,
        "meta_rev_at_epoch": 638,
        "meta_bstar": 0,
        "meta_mean_motion_dot": 0,
        "meta_mean_motion_ddot": 0,
        "tle_line1": "1 59346U 24059A   25356.91228898  .00000000  00000+0  00000+0 0  9993",
        "tle_line2": "2 59346   0.0224  32.3182 0000338 333.4824  90.1956  1.00272062  6384"
      },
      "geometry": {
        "type": "Point",
        "coordinates": [
          -156.59339121453795,
          0.00028851961987787347
        ]
      }
    }
  ]
}